#aV2024  5 30  0  0  0.00000000     288 DD+AD WGS84 FIT  NGA
## 2316 345600.00000000   300.00000000 60460 0.0000000000000
+   31     2  3  4  5  6  7  8  9 10 11 12 13 14 15 16 17 18
+         19 20 21 22 23 24 25 26 27 28 29 30 31 32  0  0  0
+          0  0  0  0  0  0  0  0  0  0  0  0  0  0  0  0  0
+          0  0  0  0  0  0  0  0  0  0  0  0  0  0  0  0  0
+          0  0  0  0  0  0  0  0  0  0  0  0  0  0  0  0  0
++         2  2  2  2  2  2  2  2  2  2  2  2  2  2  2  2  2
++         2  2  2  2  2  2  2  2  2  2  2  2  2  2  0  0  0
++         0  0  0  0  0  0  0  0  0  0  0  0  0  0  0  0  0
++         0  0  0  0  0  0  0  0  0  0  0  0  0  0  0  0  0
++         0  0  0  0  0  0  0  0  0  0  0  0  0  0  0  0  0
%c cc cc ccc ccc cccc cccc cccc cccc ccccc ccccc ccccc ccccc
%c cc cc ccc ccc cccc cccc cccc cccc ccccc ccccc ccccc ccccc
%f  0.0000000  0.000000000  0.00000000000  0.000000000000000
%f  0.0000000  0.000000000  0.00000000000  0.000000000000000
%i    0    0    0    0      0      0      0      0         0
%i    0    0    0    0      0      0      0      0         0
/*      NGA, ST. LOUIS,MO.                                  
/*   EPHEMERIS COMPUTED FROM 2 DAYS OF DATA                 
/*   EPOCHA v9 SMOOTHER                                     
/*   G2296 IERS2010 SATIGS SATAPC                           
*  2024  5 30 16 25  0.00000000
P  2  22458.243685  13271.095994   6237.865721   -426.836640                    
V  2   4121.975790   6341.218623 -30407.416396      0.069038                    
P  3  13736.691429   5134.870181  21992.701149    389.530816                    
V  3  -7400.062155  27242.302873  -1607.596192      0.186111                    
P  4  23916.753929   2552.350151  11433.927641    372.499769                    
V  4 -13560.157797   5417.492517  27063.897586      0.082636                    
P  5  -7172.519450 -19763.466680 -16355.232712   -174.565210                    
V  5   5918.877803 -19637.928207  21454.195374     -0.013540                    
P  6   2335.815456 -16832.819520  20440.109039    245.711111                    
V  6  18563.362325  17900.638868  12762.910028     -0.204061                    
P  7  17973.650808  -1407.701193 -19137.215810   -108.944917                    
V  7  17018.227181  18771.867549  13763.838689      0.147736                    
P  8  16870.568707   8791.911390 -18812.446355    205.289415                    
V  8 -22122.071243   8144.151044 -15705.124999      0.192096                    
P  9  25449.167720  -7702.639922   -188.226286    215.854669                    
V  9    948.936306   2693.805017  31666.036366      0.143464                    
P 10 -10521.132339  23323.644806  -6255.262804    -32.686873                    
V 10    -72.164643  -8575.414751 -31147.645527     -0.074072                    
P 11  -9426.099871 -22069.335603  11464.140887   -674.467422                    
V 11  11408.405968   9210.977545  27110.893760     -0.086860                    
P 12 -12997.583371  -8091.984364  21425.454449   -509.864185                    
V 12   9330.520572 -26260.067342  -4153.066960     -0.032533                    
P 13  -7965.763134 -13811.975024 -21486.588710    654.390595                    
V 13  26467.818513  -3712.627174  -7270.034742      0.028027                    
P 14  13289.271660 -20731.543204  -9637.253876    413.441988                    
V 14   -479.146503  12756.594621 -28211.010054      0.092151                    
P 15 -17699.824373  -7430.414833 -18932.362963    164.701592                    
V 15  20441.463590 -10733.847780 -15112.944968      0.041604                    
P 16   2927.865821  21959.458486 -14648.206304   -277.816421                    
V 16  -8306.775943  16351.578791  23828.489181      0.102480                    
P 17  19155.721025 -13282.773861  13298.554526    701.066454                    
V 17  16161.651464  -1481.208990 -25413.048233     -0.044520                    
P 18 -17041.650623   2201.785229 -20295.547048   -618.206696                    
V 18 -17282.678693 -19041.271825  12245.520764     -0.053351                    
P 19  10634.525534 -14896.846776  18922.212689    489.399945                    
V 19  24452.296850  -2378.474896 -15853.875082      0.053772                    
P 20  -2668.036381 -25616.128955  -6746.240348    374.703682                    
V 20   3476.816539  -8358.742802  29944.362873     -0.013732                    
P 21  21335.641530  16735.474575   1047.778730    118.514951                    
V 21   -631.800720   1964.724016 -31069.603298     -0.022866                    
P 22   9866.348907 -24783.336610  -1120.163527    -20.729034                    
V 22   1753.606589   2675.839165 -31540.674018     -0.051020                    
P 23 -14796.315647  14482.252091 -16498.334486    238.254385                    
V 23   3271.286844 -20835.310721 -21384.188955      0.092953                    
P 24 -21876.396063 -15072.449396   2986.369319   -474.054221                    
V 24  -1192.733014  -5272.856683 -30576.242586     -0.030127                    
P 25 -15927.188301   2929.412810  20671.691109    496.594597                    
V 25   5547.069699 -26553.629476   8163.757766      0.006131                    
P 26  -3800.501503  26061.089744  -1222.634248    144.938295                    
V 26  -4244.266904    652.176963  31274.108100     -0.059438                    
P 27   5084.865389  14480.859723 -21975.747319    -26.297529                    
V 27 -26226.624696   7211.262996   -917.226638     -0.015724                    
P 28  -4420.667698  15810.013920  20869.035591   -266.710771                    
V 28 -19940.390828 -17505.408005   9031.106158     -0.168379                    
P 29 -26298.431670   3368.864479   2371.785467   -596.350957                    
V 29   2562.271622  -2910.556658  31721.762286      0.016017                    
P 30  10015.103061 -12139.495971 -21235.606660   -382.222111                    
V 30  19654.429254  19133.955897  -1924.665430      0.060564                    
P 31   5301.855098  20899.161409  15032.612834   -227.635219                    
V 31 -15409.481408 -12435.296477  22792.031764      0.001679                    
P 32 -16254.146228  15155.925502  14607.278612   -617.479410                    
V 32 -18156.993970   2880.604796 -23732.205075      0.007695                    
EOF
